[{"OBJECT_NAME":"STARLINK-5848","OBJECT_ID":"2023-037U","EPOCH":"2026-03-09T22:17:01.219776","MEAN_MOTION":14.9832858,"ECCENTRICITY":0.00024253,"INCLINATION":69.9985,"RA_OF_ASC_NODE":263.6627,"ARG_OF_PERICENTER":272.3488,"MEAN_ANOMALY":87.7393,"EPHEMERIS_TYPE":0,"CLASSIFICATION_TYPE":"U","NORAD_CAT_ID":55932,"ELEMENT_SET_NO":999,"REV_AT_EPOCH":16451,"BSTAR":-4.2424822e-5,"MEAN_MOTION_DOT":-5.99e-6,"MEAN_MOTION_DDOT":0},{"OBJECT_NAME":"FENGYUN 1C DEB","OBJECT_ID":"1999-025AZA","EPOCH":"2026-03-09T00:58:11.092224","MEAN_MOTION":14.92309795,"ECCENTRICITY":0.00550776,"INCLINATION":98.9912,"RA_OF_ASC_NODE":286.2715,"ARG_OF_PERICENTER":182.0101,"MEAN_ANOMALY":178.0901,"EPHEMERIS_TYPE":0,"CLASSIFICATION_TYPE":"U","NORAD_CAT_ID":30912,"ELEMENT_SET_NO":999,"REV_AT_EPOCH":687,"BSTAR":0.0018683847,"MEAN_MOTION_DOT":0.00019628,"MEAN_MOTION_DDOT":0}]
